QIANFAN-105             
1 66047U 25233Q   25345.13195584  .00000455  00000+0  30394-3 0  9998
2 66047  88.9960  62.3107 0016770  48.4633 311.7980 13.99266092  7769
QIANFAN-106             
1 66048U 25233R   25344.98361748  .00000083  00000+0  60551-4 0  9994
2 66048  88.9970  62.3409 0016526  51.4620 308.8029 13.86303017  7738
QIANFAN-107             
1 66049U 25233S   25344.67975789  .00000192  00000+0  15666-3 0  9994
2 66049  88.9964  62.3726 0016713  51.6087 308.6582 13.85505989  7699
QIANFAN-108             
1 66050U 25233T   25344.90317233  .00000208  00000+0  17094-3 0  9991
2 66050  88.9951  62.3516 0016387  53.7248 306.5433 13.85343352  7723
